     2.10           H: GEO NAV MSG DATA                     RINEX VERSION / TYPE
RTKCONV 2.4.2                           20170629 130702 UTC PGM / RUN BY / DATE 
log: F:\Research\Utilities\ParseUBX\ParseUBX\6t-nosbasinte  COMMENT             
format: u-blox                                              COMMENT             
                                                            END OF HEADER       
35 12  9 14 12 44 48.0  .111758708954E-07 -.272848410532E-11  .477935000000E+06
    -.287634924800E+05 -.349375000000E-03  .375000000000E-07  .000000000000E+00
    -.308357435200E+05  .525000000000E-03  .125000000000E-07  .240000000000E+01
    -.100140000000E+02 -.824000000000E-03  .625000000000E-07  .000000000000E+00
38 12  9 14 12 44 48.0  .651925802231E-08  .909494701773E-12  .477950000000E+06
    -.125612394400E+05 -.440000000000E-03  .137500000000E-06  .000000000000E+00
    -.402549292000E+05  .104375000000E-02  .000000000000E+00  .240000000000E+01
    -.998080000000E+01  .244000000000E-03  .625000000000E-07  .000000000000E+00
38 12  9 14 12 49  4.0  .651925802231E-08 -.909494701773E-12  .478120000000E+06
    -.125613476000E+05 -.405625000000E-03  .137500000000E-06  .000000000000E+00
    -.402546620000E+05  .104312500000E-02  .000000000000E+00  .240000000000E+01
    -.991640000000E+01  .256000000000E-03  .625000000000E-07  .000000000000E+00
33 12  9 14 12 49  4.0  .237487256527E-07 -.200088834390E-10  .478120000000E+06
    -.560920328000E+04  .318750000000E-02 -.212500000000E-06  .000000000000E+00
    -.417372652800E+05 -.151500000000E-02 -.462500000000E-06  .240000000000E+02
     .212721040000E+04 -.401800000000E-01 -.113125000000E-04  .000000000000E+00
35 12  9 14 12 49  4.0  .102445483208E-07 -.363797880709E-11  .478120000000E+06
    -.287635807200E+05 -.340625000000E-03  .375000000000E-07  .000000000000E+00
    -.308356087200E+05  .527500000000E-03  .125000000000E-07  .240000000000E+01
    -.102228000000E+02 -.812000000000E-03  .625000000000E-07  .000000000000E+00
